{"fetched_at":"2026-07-24T07:06:09.639Z","source":"https://celestrak.org/NORAD/elements/gp.php?GROUP=planet&FORMAT=JSON","constellation":"skysat","records":[{"OBJECT_NAME":"SKYSAT-A","OBJECT_ID":"2013-066C","EPOCH":"2026-07-23T16:43:06.049056","CLASSIFICATION_TYPE":"U","MEAN_MOTION":15.13149367,"ECCENTRICITY":0.0021316,"INCLINATION":97.3797,"RA_OF_ASC_NODE":252.93,"ARG_OF_PERICENTER":183.2165,"MEAN_ANOMALY":176.8933,"EPHEMERIS_TYPE":0,"NORAD_CAT_ID":39418,"ELEMENT_SET_NO":999,"REV_AT_EPOCH":69400,"BSTAR":0.00016737,"MEAN_MOTION_DOT":0.00002918,"MEAN_MOTION_DDOT":0},{"OBJECT_NAME":"SKYSAT-B","OBJECT_ID":"2014-037D","EPOCH":"2026-07-23T20:08:25.734336","CLASSIFICATION_TYPE":"U","MEAN_MOTION":14.88108065,"ECCENTRICITY":0.000615,"INCLINATION":98.3859,"RA_OF_ASC_NODE":165.9005,"ARG_OF_PERICENTER":146.8472,"MEAN_ANOMALY":213.313,"EPHEMERIS_TYPE":0,"NORAD_CAT_ID":40072,"ELEMENT_SET_NO":999,"REV_AT_EPOCH":65141,"BSTAR":0.0001379,"MEAN_MOTION_DOT":0.00001208,"MEAN_MOTION_DDOT":0},{"OBJECT_NAME":"SKYSAT-C1","OBJECT_ID":"2016-040C","EPOCH":"2026-07-23T13:18:05.268960","CLASSIFICATION_TYPE":"U","MEAN_MOTION":15.36853586,"ECCENTRICITY":0.0001052,"INCLINATION":96.9557,"RA_OF_ASC_NODE":234.3127,"ARG_OF_PERICENTER":184.1507,"MEAN_ANOMALY":175.973,"EPHEMERIS_TYPE":0,"NORAD_CAT_ID":41601,"ELEMENT_SET_NO":999,"REV_AT_EPOCH":56345,"BSTAR":0.00024102,"MEAN_MOTION_DOT":0.00008608,"MEAN_MOTION_DDOT":0},{"OBJECT_NAME":"SKYSAT-C4","OBJECT_ID":"2016-058B","EPOCH":"2026-07-23T12:07:23.884320","CLASSIFICATION_TYPE":"U","MEAN_MOTION":15.49650272,"ECCENTRICITY":0.0003569,"INCLINATION":96.9177,"RA_OF_ASC_NODE":224.7807,"ARG_OF_PERICENTER":107.7824,"MEAN_ANOMALY":252.3818,"EPHEMERIS_TYPE":0,"NORAD_CAT_ID":41771,"ELEMENT_SET_NO":999,"REV_AT_EPOCH":55109,"BSTAR":0.00031709,"MEAN_MOTION_DOT":0.00017484,"MEAN_MOTION_DDOT":0},{"OBJECT_NAME":"SKYSAT-C5","OBJECT_ID":"2016-058C","EPOCH":"2026-07-23T02:32:02.213088","CLASSIFICATION_TYPE":"U","MEAN_MOTION":15.33797689,"ECCENTRICITY":0.0003402,"INCLINATION":97.0456,"RA_OF_ASC_NODE":243.126,"ARG_OF_PERICENTER":142.5858,"MEAN_ANOMALY":217.5623,"EPHEMERIS_TYPE":0,"NORAD_CAT_ID":41772,"ELEMENT_SET_NO":999,"REV_AT_EPOCH":54925,"BSTAR":0.00022409363,"MEAN_MOTION_DOT":0.00007252,"MEAN_MOTION_DDOT":0},{"OBJECT_NAME":"SKYSAT-C2","OBJECT_ID":"2016-058D","EPOCH":"2026-07-23T07:54:04.473216","CLASSIFICATION_TYPE":"U","MEAN_MOTION":15.4282123,"ECCENTRICITY":0.00006619,"INCLINATION":97.0165,"RA_OF_ASC_NODE":225.0801,"ARG_OF_PERICENTER":273.3925,"MEAN_ANOMALY":86.7248,"EPHEMERIS_TYPE":0,"NORAD_CAT_ID":41773,"ELEMENT_SET_NO":999,"REV_AT_EPOCH":55062,"BSTAR":0.00027930384,"MEAN_MOTION_DOT":0.00012159,"MEAN_MOTION_DDOT":0},{"OBJECT_NAME":"SKYSAT-C3","OBJECT_ID":"2016-058E","EPOCH":"2026-07-23T13:00:11.386944","CLASSIFICATION_TYPE":"U","MEAN_MOTION":15.54002189,"ECCENTRICITY":0.0002886,"INCLINATION":96.9002,"RA_OF_ASC_NODE":234.0233,"ARG_OF_PERICENTER":123.056,"MEAN_ANOMALY":237.0972,"EPHEMERIS_TYPE":0,"NORAD_CAT_ID":41774,"ELEMENT_SET_NO":999,"REV_AT_EPOCH":55175,"BSTAR":0.00037171,"MEAN_MOTION_DOT":0.00023979,"MEAN_MOTION_DDOT":0},{"OBJECT_NAME":"SKYSAT-C11","OBJECT_ID":"2017-068A","EPOCH":"2026-07-23T09:22:50.919168","CLASSIFICATION_TYPE":"U","MEAN_MOTION":15.59689712,"ECCENTRICITY":0.0001508,"INCLINATION":97.438,"RA_OF_ASC_NODE":354.8568,"ARG_OF_PERICENTER":147.1025,"MEAN_ANOMALY":213.0325,"EPHEMERIS_TYPE":0,"NORAD_CAT_ID":42987,"ELEMENT_SET_NO":999,"REV_AT_EPOCH":48888,"BSTAR":0.00038262,"MEAN_MOTION_DOT":0.00030498,"MEAN_MOTION_DDOT":0},{"OBJECT_NAME":"SKYSAT-C10","OBJECT_ID":"2017-068B","EPOCH":"2026-07-23T19:10:56.642016","CLASSIFICATION_TYPE":"U","MEAN_MOTION":15.35247695,"ECCENTRICITY":0.0001562,"INCLINATION":97.454,"RA_OF_ASC_NODE":342.028,"ARG_OF_PERICENTER":110.3852,"MEAN_ANOMALY":249.7559,"EPHEMERIS_TYPE":0,"NORAD_CAT_ID":42988,"ELEMENT_SET_NO":999,"REV_AT_EPOCH":48797,"BSTAR":0.00027945,"MEAN_MOTION_DOT":0.00009483,"MEAN_MOTION_DDOT":0},{"OBJECT_NAME":"SKYSAT-C9","OBJECT_ID":"2017-068C","EPOCH":"2026-07-23T07:40:29.191584","CLASSIFICATION_TYPE":"U","MEAN_MOTION":15.42362279,"ECCENTRICITY":0.0007944,"INCLINATION":97.446,"RA_OF_ASC_NODE":342.8295,"ARG_OF_PERICENTER":17.0072,"MEAN_ANOMALY":343.144,"EPHEMERIS_TYPE":0,"NORAD_CAT_ID":42989,"ELEMENT_SET_NO":999,"REV_AT_EPOCH":48832,"BSTAR":0.00029466,"MEAN_MOTION_DOT":0.00012642,"MEAN_MOTION_DDOT":0},{"OBJECT_NAME":"SKYSAT-C8","OBJECT_ID":"2017-068D","EPOCH":"2026-07-23T07:46:18.740928","CLASSIFICATION_TYPE":"U","MEAN_MOTION":15.37611067,"ECCENTRICITY":0.0001312,"INCLINATION":97.4557,"RA_OF_ASC_NODE":341.4865,"ARG_OF_PERICENTER":107.4214,"MEAN_ANOMALY":252.7174,"EPHEMERIS_TYPE":0,"NORAD_CAT_ID":42990,"ELEMENT_SET_NO":999,"REV_AT_EPOCH":48786,"BSTAR":0.00028469,"MEAN_MOTION_DOT":0.00010428,"MEAN_MOTION_DDOT":0},{"OBJECT_NAME":"SKYSAT-C7","OBJECT_ID":"2017-068E","EPOCH":"2026-07-23T07:38:44.653632","CLASSIFICATION_TYPE":"U","MEAN_MOTION":15.37559306,"ECCENTRICITY":0.0004958,"INCLINATION":97.4568,"RA_OF_ASC_NODE":342.4736,"ARG_OF_PERICENTER":351.7605,"MEAN_ANOMALY":8.3557,"EPHEMERIS_TYPE":0,"NORAD_CAT_ID":42991,"ELEMENT_SET_NO":999,"REV_AT_EPOCH":48792,"BSTAR":0.00028091,"MEAN_MOTION_DOT":0.00010274,"MEAN_MOTION_DDOT":0},{"OBJECT_NAME":"SKYSAT-C6","OBJECT_ID":"2017-068F","EPOCH":"2026-07-23T19:15:20.111040","CLASSIFICATION_TYPE":"U","MEAN_MOTION":15.34282201,"ECCENTRICITY":0.0004765,"INCLINATION":97.4606,"RA_OF_ASC_NODE":342.779,"ARG_OF_PERICENTER":67.6027,"MEAN_ANOMALY":292.572,"EPHEMERIS_TYPE":0,"NORAD_CAT_ID":42992,"ELEMENT_SET_NO":999,"REV_AT_EPOCH":48793,"BSTAR":0.00026301,"MEAN_MOTION_DOT":0.00008652,"MEAN_MOTION_DDOT":0},{"OBJECT_NAME":"SKYSAT-C12","OBJECT_ID":"2018-099AR","EPOCH":"2026-07-23T10:53:06.751104","CLASSIFICATION_TYPE":"U","MEAN_MOTION":15.50003314,"ECCENTRICITY":0.0004621,"INCLINATION":96.9257,"RA_OF_ASC_NODE":226.2572,"ARG_OF_PERICENTER":51.9908,"MEAN_ANOMALY":308.1761,"EPHEMERIS_TYPE":0,"NORAD_CAT_ID":43797,"ELEMENT_SET_NO":999,"REV_AT_EPOCH":42747,"BSTAR":0.00032071,"MEAN_MOTION_DOT":0.0001791,"MEAN_MOTION_DDOT":0}]}
