SKYSAT-A                
1 39418U 13066C   26204.69659779  .00002918  00000+0  16737-3 0  9999
2 39418  97.3797 252.9300 0021316 183.2165 176.8933 15.13149367694005
SKYSAT-B                
1 40072U 14037D   26204.83918674  .00001208  00000+0  13790-3 0  9991
2 40072  98.3859 165.9005 0006150 146.8472 213.3130 14.88108065651418
SKYSAT-C1               
1 41601U 16040C   26204.55422765  .00008608  00000+0  24102-3 0  9996
2 41601  96.9557 234.3127 0001052 184.1507 175.9730 15.36853586563456
SKYSAT-C4               
1 41771U 16058B   26204.50513755  .00017484  00000+0  31709-3 0  9991
2 41771  96.9177 224.7807 0003569 107.7824 252.3818 15.49650272551093
SKYSAT-C5               
1 41772U 16058C   26204.10558117  .00007252  00000+0  22409-3 0  9998
2 41772  97.0456 243.1260 0003402 142.5858 217.5623 15.33797689549253
SKYSAT-C2               
1 41773U 16058D   26204.32921844  .00012159  00000+0  27930-3 0  9990
2 41773  97.0165 225.0801 0000661 273.3925  86.7248 15.42821230550625
SKYSAT-C3               
1 41774U 16058E   26204.54179846  .00023979  00000+0  37171-3 0  9992
2 41774  96.9002 234.0233 0002886 123.0560 237.0972 15.54002189551757
SKYSAT-C11              
1 42987U 17068A   26204.39086712  .00030498  00000+0  38262-3 0  9999
2 42987  97.4380 354.8568 0001508 147.1025 213.0325 15.59689712488881
SKYSAT-C10              
1 42988U 17068B   26204.79926669  .00009483  00000+0  27945-3 0  9994
2 42988  97.4540 342.0280 0001562 110.3852 249.7559 15.35247695487978
SKYSAT-C9               
1 42989U 17068C   26204.31978231  .00012642  00000+0  29466-3 0  9996
2 42989  97.4460 342.8295 0007944  17.0072 343.1440 15.42362279488323
SKYSAT-C8               
1 42990U 17068D   26204.32382802  .00010428  00000+0  28469-3 0  9994
2 42990  97.4557 341.4865 0001312 107.4214 252.7174 15.37611067487868
SKYSAT-C7               
1 42991U 17068E   26204.31857238  .00010274  00000+0  28091-3 0  9994
2 42991  97.4568 342.4736 0004958 351.7605   8.3557 15.37559306487920
SKYSAT-C6               
1 42992U 17068F   26204.80231610  .00008652  00000+0  26301-3 0  9998
2 42992  97.4606 342.7790 0004765  67.6027 292.5720 15.34282201487938
SKYSAT-C12              
1 43797U 18099AR  26204.45355036  .00017910  00000+0  32071-3 0  9995
2 43797  96.9257 226.2572 0004621  51.9908 308.1761 15.50003314427473
